{
  "norad_id": 67415,
  "name": "STARLINK-36468",
  "history": [
    {
      "epoch": "2026-03-28T11:06:05.216832Z",
      "apogee_km": 484.14050716111706,
      "perigee_km": 481.75271284316386,
      "latitude_deg": -2.39269591753636e-05,
      "longitude_deg": 139.89528161430414,
      "height_km": 482.68255558736513,
      "semi_major_axis_km": 6861.08361000214,
      "eccentricity": 0.00017401,
      "inclination_deg": 43.0019,
      "raan_deg": 132.2997,
      "arg_perigee_deg": 271.9798,
      "mean_anomaly_deg": 88.0854,
      "mean_motion_rev_day": 15.27614227
    }
  ]
}